[{"OBJECT_NAME":"STARLINK-35657","OBJECT_ID":"2025-257V","EPOCH":"2026-03-09T17:10:55.913088","MEAN_MOTION":15.30196269,"ECCENTRICITY":7.493e-5,"INCLINATION":53.1573,"RA_OF_ASC_NODE":217.1722,"ARG_OF_PERICENTER":112.2619,"MEAN_ANOMALY":247.8461,"EPHEMERIS_TYPE":0,"CLASSIFICATION_TYPE":"U","NORAD_CAT_ID":66399,"ELEMENT_SET_NO":999,"REV_AT_EPOCH":1972,"BSTAR":0.00066214276,"MEAN_MOTION_DOT":0.000193,"MEAN_MOTION_DDOT":0},{"OBJECT_NAME":"COSMOS 1328","OBJECT_ID":"1981-117A","EPOCH":"2026-03-09T17:51:53.113536","MEAN_MOTION":15.33902077,"ECCENTRICITY":0.00108717,"INCLINATION":82.4939,"RA_OF_ASC_NODE":350.453,"ARG_OF_PERICENTER":167.9725,"MEAN_ANOMALY":192.1779,"EPHEMERIS_TYPE":0,"CLASSIFICATION_TYPE":"U","NORAD_CAT_ID":12987,"ELEMENT_SET_NO":999,"REV_AT_EPOCH":41406,"BSTAR":0.00040501644,"MEAN_MOTION_DOT":0.00013342,"MEAN_MOTION_DDOT":0}]
